NORAD_CAT_ID,OBJECT_NAME,OBJECT_TYPE,EPOCH,MEAN_MOTION,ECCENTRICITY,INCLINATION,RA_OF_ASC_NODE,ARG_OF_PERICENTER,MEAN_ANOMALY,BSTAR,MEAN_MOTION_DOT,MEAN_MOTION_DDOT,TLE_LINE0,TLE_LINE1,TLE_LINE2,SEMIMAJOR_AXIS,PERIOD,APOGEE,PERIGEE,DECAYED
53864.0,STARLINK-4779,PAYLOAD,2023-04-29 23:43:38,15.0885022,2.81e-05,53.2169,293.532,56.5591,303.5428,-1.0262e-05,-4.51e-06,0.0,0 STARLINK-4779,1 53864U 22114AY  23119.98863919 -.00000451  00000-0 -10262-4 0  9992,2 53864  53.2169 293.5320 0000281  56.5591 303.5428 15.08850220 35408,6917.849,95.437,539.909,539.52,0.0
53864.0,STARLINK-4779,PAYLOAD,2023-04-30 17:12:53,15.08839751,4.35e-05,53.2171,290.2612,61.8473,298.2563,8.2999e-05,1.034e-05,0.0,0 STARLINK-4779,1 53864U 22114AY  23120.71728576  .00001034  00000-0  82999-4 0  9996,2 53864  53.2171 290.2612 0000435  61.8473 298.2563 15.08839751 34975,6917.881,95.438,540.047,539.445,0.0
53864.0,STARLINK-4779,PAYLOAD,2023-05-01 18:39:03,15.08841096,4.74e-05,53.2178,285.5029,38.8629,321.2397,8.2554e-05,1.027e-05,0.0,0 STARLINK-4779,1 53864U 22114AY  23121.77712908  .00001027  00000-0  82554-4 0  9994,2 53864  53.2178 285.5029 0000474  38.8629 321.2397 15.08841096 35676,6917.877,95.437,540.07,539.414,0.0
53864.0,STARLINK-4779,PAYLOAD,2023-05-01 21:49:49,15.08845939,6.03e-05,53.2176,284.9089,23.6039,336.4981,0.00012075,1.635e-05,0.0,0 STARLINK-4779,1 53864U 22114AY  23121.90960536  .00001635  00000-0  12075-3 0  9996,2 53864  53.2176 284.9089 0000603  23.6039 336.4981 15.08845939 35154,6917.862,95.437,540.144,539.31,0.0
53864.0,STARLINK-4779,PAYLOAD,2023-05-02 16:54:28,15.08807458,5.81e-05,53.2172,281.3405,48.0317,312.0724,0.00074565,0.00011589,0.0,0 STARLINK-4779,1 53864U 22114AY  23122.70449478  .00011589  00000-0  74565-3 0  9993,2 53864  53.2172 281.3405 0000581  48.0317 312.0724 15.08807458 35270,6917.98,95.44,540.247,539.443,0.0
53864.0,STARLINK-4779,PAYLOAD,2023-05-03 04:02:09,15.08835973,2.27e-05,53.2167,279.2578,30.901,329.1996,2.9417e-05,1.81e-06,0.0,0 STARLINK-4779,1 53864U 22114AY  23123.16816744  .00000181  00000-0  29417-4 0  9991,2 53864  53.2167 279.2578 0000227  30.9010 329.1996 15.08835973 35349,6917.893,95.438,539.915,539.601,0.0
53864.0,STARLINK-4779,PAYLOAD,2023-05-03 13:34:28,15.08836264,3.11e-05,53.2159,277.4743,46.4979,313.6039,-2.5791e-05,-6.98e-06,0.0,0 STARLINK-4779,1 53864U 22114AY  23123.56560903 -.00000698  00000-0 -25791-4 0  9994,2 53864  53.2159 277.4743 0000311  46.4979 313.6039 15.08836264 35940,6917.892,95.438,539.972,539.542,0.0
53864.0,STARLINK-4779,PAYLOAD,2023-05-03 16:45:14,15.08837366,3.66e-05,53.2161,276.8798,44.0385,316.0636,-6.4325e-06,-3.9e-06,0.0,0 STARLINK-4779,1 53864U 22114AY  23123.69808887 -.00000390  00000-0 -64325-5 0  9990,2 53864  53.2161 276.8798 0000366  44.0385 316.0636 15.08837366 35967,6917.888,95.438,540.007,539.5,0.0
53864.0,STARLINK-4779,PAYLOAD,2023-05-04 13:25:15,15.08846099,2.94e-05,53.2165,273.0124,105.0132,255.0893,1.6957e-05,-1.8e-07,0.0,0 STARLINK-4779,1 53864U 22114AY  23124.55920458 -.00000018  00000-0  16957-4 0  9998,2 53864  53.2165 273.0124 0000294 105.0132 255.0893 15.08846099 35556,6917.862,95.437,539.93,539.523,0.0
53864.0,STARLINK-4779,PAYLOAD,2023-05-04 19:46:47,15.08853723,3.14e-05,53.2171,271.8241,65.5689,294.5336,0.00015428,2.17e-05,0.0,0 STARLINK-4779,1 53864U 22114AY  23124.82416063  .00002170  00000-0  15428-3 0  9991,2 53864  53.2171 271.8241 0000314  65.5689 294.5336 15.08853723 36136,6917.838,95.437,539.921,539.486,0.0
53864.0,STARLINK-4779,PAYLOAD,2023-05-05 16:26:49,15.08838519,3.37e-05,53.2161,267.957,39.9593,320.1424,0.00013603,1.878e-05,0.0,0 STARLINK-4779,1 53864U 22114AY  23125.68529134  .00001878  00000-0  13603-3 0  9997,2 53864  53.2161 267.9570 0000337  39.9593 320.1424 15.08838519 35724,6917.885,95.438,539.983,539.517,0.0
53864.0,STARLINK-4779,PAYLOAD,2023-05-05 19:37:35,15.08842742,3.41e-05,53.2166,267.3627,65.2497,294.853,0.0002126,3.098e-05,0.0,0 STARLINK-4779,1 53864U 22114AY  23125.81777015  .00003098  00000-0  21260-3 0  9999,2 53864  53.2166 267.3627 0000341  65.2497 294.8530 15.08842742 36286,6917.872,95.437,539.973,539.501,0.0
53864.0,STARLINK-4779,PAYLOAD,2023-05-06 13:06:49,15.08850734,4.74e-05,53.2157,264.0923,45.2493,314.8537,0.00031948,4.802e-05,0.0,0 STARLINK-4779,1 53864U 22114AY  23126.54640948  .00004802  00000-0  31948-3 0  9992,2 53864  53.2157 264.0923 0000474  45.2493 314.8537 15.08850734 36392,6917.848,95.437,540.04,539.385,0.0
53864.0,STARLINK-4779,PAYLOAD,2023-05-07 01:49:54,15.08846436,2.84e-05,53.2162,261.7157,80.766,279.3364,0.00041087,6.259e-05,0.0,0 STARLINK-4779,1 53864U 22114AY  23127.07632935  .00006259  00000-0  41087-3 0  9991,2 53864  53.2162 261.7157 0000284  80.7660 279.3364 15.08846436 35936,6917.861,95.437,539.922,539.529,0.0
53864.0,STARLINK-4779,PAYLOAD,2023-05-07 12:57:37,15.08832194,2.22e-05,53.2164,259.6328,52.3496,307.7516,-0.00017985,-3.148e-05,0.0,0 STARLINK-4779,1 53864U 22114AY  23127.54001220 -.00003148  00000-0 -17985-3 0  9996,2 53864  53.2164 259.6328 0000222  52.3496 307.7516 15.08832194 36008,6917.904,95.438,539.923,539.616,0.0
53864.0,STARLINK-4779,PAYLOAD,2023-05-07 16:08:23,15.08835482,5.49e-05,53.2153,259.0374,36.3171,323.7858,6.338e-05,7.21e-06,0.0,0 STARLINK-4779,1 53864U 22114AY  23127.67249513  .00000721  00000-0  63380-4 0  9992,2 53864  53.2153 259.0374 0000549  36.3171 323.7858 15.08835482 36566,6917.894,95.438,540.139,539.379,0.0
53864.0,STARLINK-4779,PAYLOAD,2023-05-08 12:48:24,15.0884141,6e-05,53.2153,255.1716,50.9058,309.1987,7.4047e-05,8.91e-06,0.0,0 STARLINK-4779,1 53864U 22114AY  23128.53361341  .00000891  00000-0  74047-4 0  9992,2 53864  53.2153 255.1716 0000600  50.9058 309.1987 15.08841410 36151,6917.876,95.437,540.156,539.326,0.0
53864.0,STARLINK-4779,PAYLOAD,2023-05-08 15:59:10,15.08848124,4.81e-05,53.216,254.5766,45.9236,314.1795,0.00011726,1.58e-05,0.0,0 STARLINK-4779,1 53864U 22114AY  23128.66608980  .00001580  00000-0  11726-3 0  9999,2 53864  53.2160 254.5766 0000481  45.9236 314.1795 15.08848124 36710,6917.856,95.437,540.053,539.388,0.0
53864.0,STARLINK-4779,PAYLOAD,2023-05-09 14:14:34,15.08843473,6.26e-05,53.2155,250.4162,44.6064,315.4978,0.00016134,2.281e-05,0.0,0 STARLINK-4779,1 53864U 22114AY  23129.59345358  .00002281  00000-0  16134-3 0  9996,2 53864  53.2155 250.4162 0000626  44.6064 315.4978 15.08843473 36859,6917.87,95.437,540.168,539.302,0.0
53864.0,STARLINK-4779,PAYLOAD,2023-05-10 12:29:58,15.08841424,4.48e-05,53.216,246.2506,29.0969,331.0048,-1.2742e-05,-4.9e-06,0.0,0 STARLINK-4779,1 53864U 22114AY  23130.52081469 -.00000490  00000-0 -12742-4 0  9995,2 53864  53.2160 246.2506 0000448  29.0969 331.0048 15.08841424 36994,6917.876,95.437,540.051,539.431,0.0
53864.0,STARLINK-4779,PAYLOAD,2023-05-10 18:51:30,15.08851608,5.44e-05,53.2167,245.0607,76.9149,283.1904,0.00016576,2.352e-05,0.0,0 STARLINK-4779,1 53864U 22114AY  23130.78576958  .00002352  00000-0  16576-3 0  9990,2 53864  53.2167 245.0607 0000544  76.9149 283.1904 15.08851608 36496,6917.845,95.437,540.086,539.334,0.0
53864.0,STARLINK-4779,PAYLOAD,2023-05-11 01:13:03,15.08838591,6.52e-05,53.2158,243.875,22.8743,337.2278,7.9315e-05,9.75e-06,0.0,0 STARLINK-4779,1 53864U 22114AY  23131.05073669  .00000975  00000-0  79315-4 0  9992,2 53864  53.2158 243.8750 0000652  22.8743 337.2278 15.08838591 36537,6917.885,95.438,540.201,539.299,0.0
53864.0,STARLINK-4779,PAYLOAD,2023-05-11 10:45:22,15.08838023,4.63e-05,53.2162,242.0893,32.3245,327.7775,3.3815e-05,2.51e-06,0.0,0 STARLINK-4779,1 53864U 22114AY  23131.44817717  .00000251  00000-0  33815-4 0  9997,2 53864  53.2162 242.0893 0000463  32.3245 327.7775 15.08838023 37137,6917.886,95.438,540.072,539.431,0.0
53864.0,STARLINK-4779,PAYLOAD,2023-05-11 13:56:08,15.08843299,6.89e-05,53.2161,241.4948,46.1745,313.9304,0.00016189,2.29e-05,0.0,0 STARLINK-4779,1 53864U 22114AY  23131.58065684  .00002290  00000-0  16189-3 0  9999,2 53864  53.2161 241.4948 0000689  46.1745 313.9304 15.08843299 37156,6917.87,95.437,540.212,539.259,0.0
53864.0,STARLINK-4779,PAYLOAD,2023-05-12 23:19:14,15.08842293,8.76e-05,53.217,235.249,53.8437,306.2636,0.00010916,1.45e-05,0.0,0 STARLINK-4779,1 53864U 22114AY  23132.97169852  .00001450  00000-0  10916-3 0  9994,2 53864  53.2170 235.2490 0000876  53.8437 306.2636 15.08842293 36829,6917.873,95.437,540.344,539.132,0.0
53864.0,STARLINK-4779,PAYLOAD,2023-05-13 12:02:19,15.08838383,4.98e-05,53.2152,232.8704,68.1146,291.9899,7.8629e-05,9.64e-06,0.0,0 STARLINK-4779,1 53864U 22114AY  23133.50161908  .00000964  00000-0  78629-4 0  9993,2 53864  53.2152 232.8704 0000498  68.1146 291.9899 15.08838383 37441,6917.885,95.438,540.095,539.406,0.0
53864.0,STARLINK-4779,PAYLOAD,2023-05-13 13:37:42,15.08846686,4.72e-05,53.2158,232.5707,97.675,262.4295,8.5707e-05,1.077e-05,0.0,0 STARLINK-4779,1 53864U 22114AY  23133.56785434  .00001077  00000-0  85707-4 0  9996,2 53864  53.2158 232.5707 0000472  97.6750 262.4295 15.08846686 37456,6917.86,95.437,540.051,539.398,0.0
53864.0,STARLINK-4779,PAYLOAD,2023-05-14 11:53:07,15.0883261,7.24e-05,53.2163,228.41,56.8643,303.2419,-6.3286e-05,-1.294e-05,0.0,0 STARLINK-4779,1 53864U 22114AY  23134.49522365 -.00001294  00000-0 -63286-4 0  9992,2 53864  53.2163 228.4100 0000724  56.8643 303.2419 15.08832610 37051,6917.903,95.438,540.269,539.267,0.0
53864.0,STARLINK-4779,PAYLOAD,2023-05-14 15:03:53,15.08836756,7.17e-05,53.2168,227.8145,64.1489,295.9577,4.8282e-05,4.81e-06,0.0,0 STARLINK-4779,1 53864U 22114AY  23134.62770468  .00000481  00000-0  48282-4 0  9990,2 53864  53.2168 227.8145 0000717  64.1489 295.9577 15.08836756 37619,6917.89,95.438,540.251,539.259,0.0
53864.0,STARLINK-4779,PAYLOAD,2023-05-15 11:43:54,15.08843554,6.5e-05,53.2168,223.9483,70.267,289.8392,2.7688e-05,1.53e-06,0.0,0 STARLINK-4779,1 53864U 22114AY  23135.48882325  .00000153  00000-0  27688-4 0  9994,2 53864  53.2168 223.9483 0000650  70.2670 289.8392 15.08843554 37742,6917.87,95.437,540.184,539.285,0.0
